start=new Date('2022-10-02T00:00:00.000Z').valueOf();
sats=[{"CLASSIFICATION_TYPE":"U","LAUNCH_DATE":"2020-03-18","OBJECT_TYPE":"PAYLOAD","MEAN_ELEMENT_THEORY":"SGP4","REV_AT_EPOCH":"14070","ELEMENT_SET_NO":"999","DECAY_DATE":null,"ARG_OF_PERICENTER":"60.5591","PERIOD":"95.592","REF_FRAME":"TEME","TIME_SYSTEM":"UTC","TLE_LINE1":"1 45414U 20019BG  22274.77622623  .00000994  00000-0  85628-4 0  9997","INCLINATION":"53.0577","MEAN_MOTION_DOT":"0.00000994","RCS_SIZE":"LARGE","ECCENTRICITY":"0.00014750","EPHEMERIS_TYPE":"0","SITE":"AFETR","NORAD_CAT_ID":"45414","MEAN_ANOMALY":"299.5545","OBJECT_NAME":"STARLINK-1309","CENTER_NAME":"EARTH","EPOCH":"2022-10-01T18:37:45.946272","PERIAPSIS":"546.173","FILE":"3588844","OBJECT_ID":"2020-019BG","SEMIMAJOR_AXIS":"6925.330","TLE_LINE2":"2 45414  53.0577  10.1488 0001475  60.5591 299.5545 15.06406167140709","BSTAR":"0.00008562800000","RA_OF_ASC_NODE":"10.1488","APOAPSIS":"548.216","GP_ID":"213974190","MEAN_MOTION":"15.06406167","COUNTRY_CODE":"US","MEAN_MOTION_DDOT":"0.0000000000000"},{"MEAN_MOTION":"15.06422027","GP_ID":"213942763","MEAN_MOTION_DDOT":"0.0000000000000","COUNTRY_CODE":"US","PERIAPSIS":"546.224","FILE":"3588593","CENTER_NAME":"EARTH","OBJECT_NAME":"STARLINK-1316","EPOCH":"2022-10-01T12:52:45.647616","MEAN_ANOMALY":"283.9497","NORAD_CAT_ID":"45415","RA_OF_ASC_NODE":"11.2316","APOAPSIS":"548.068","BSTAR":"0.00046486000000","TLE_LINE2":"2 45415  53.0541  11.2316 0001332  76.1641 283.9497 15.06422027140700","SEMIMAJOR_AXIS":"6925.281","OBJECT_ID":"2020-019BH","INCLINATION":"53.0541","MEAN_MOTION_DOT":"0.00006653","TLE_LINE1":"1 45415U 20019BH  22274.53663944  .00006653  00000-0  46486-3 0  9999","TIME_SYSTEM":"UTC","EPHEMERIS_TYPE":"0","SITE":"AFETR","ECCENTRICITY":"0.00013320","RCS_SIZE":"LARGE","MEAN_ELEMENT_THEORY":"SGP4","OBJECT_TYPE":"PAYLOAD","LAUNCH_DATE":"2020-03-18","CLASSIFICATION_TYPE":"U","REF_FRAME":"TEME","DECAY_DATE":null,"ARG_OF_PERICENTER":"76.1641","PERIOD":"95.591","REV_AT_EPOCH":"14070","ELEMENT_SET_NO":"999"},{"MEAN_MOTION":"15.06413751","GP_ID":"213975191","MEAN_MOTION_DDOT":"0.0000000000000","COUNTRY_CODE":"US","FILE":"3588844","PERIAPSIS":"546.093","EPOCH":"2022-10-01T18:27:08.927712","OBJECT_NAME":"STARLINK-1318","CENTER_NAME":"EARTH","NORAD_CAT_ID":"45416","MEAN_ANOMALY":"290.2055","APOAPSIS":"548.250","RA_OF_ASC_NODE":"10.1755","BSTAR":"0.00047183000000","TLE_LINE2":"2 45416  53.0545  10.1755 0001557  69.9102 290.2055 15.06413751140728","SEMIMAJOR_AXIS":"6925.306","OBJECT_ID":"2020-019BJ","INCLINATION":"53.0545","MEAN_MOTION_DOT":"0.00006756","TLE_LINE1":"1 45416U 20019BJ  22274.76885333  .00006756  00000-0  47183-3 0  9992","TIME_SYSTEM":"UTC","EPHEMERIS_TYPE":"0","SITE":"AFETR","ECCENTRICITY":"0.00015570","RCS_SIZE":"LARGE","MEAN_ELEMENT_THEORY":"SGP4","OBJECT_TYPE":"PAYLOAD","LAUNCH_DATE":"2020-03-18","CLASSIFICATION_TYPE":"U","REF_FRAME":"TEME","PERIOD":"95.591","ARG_OF_PERICENTER":"69.9102","DECAY_DATE":null,"ELEMENT_SET_NO":"999","REV_AT_EPOCH":"14072"},{"LAUNCH_DATE":"2020-03-18","CLASSIFICATION_TYPE":"U","MEAN_ELEMENT_THEORY":"SGP4","OBJECT_TYPE":"PAYLOAD","ARG_OF_PERICENTER":"83.0621","PERIOD":"95.592","DECAY_DATE":null,"ELEMENT_SET_NO":"999","REV_AT_EPOCH":"14058","REF_FRAME":"TEME","TLE_LINE1":"1 45417U 20019BK  22274.83980726  .00002203  00000-0  16669-3 0  9991","TIME_SYSTEM":"UTC","INCLINATION":"53.0559","MEAN_MOTION_DOT":"0.00002203","RCS_SIZE":"LARGE","SITE":"AFETR","EPHEMERIS_TYPE":"0","ECCENTRICITY":"0.00012580","MEAN_ANOMALY":"277.0511","NORAD_CAT_ID":"45417","FILE":"3588844","PERIAPSIS":"546.320","EPOCH":"2022-10-01T20:09:19.347264","OBJECT_NAME":"STARLINK-1286","CENTER_NAME":"EARTH","TLE_LINE2":"2 45417  53.0559  39.8472 0001258  83.0621 277.0511 15.06407332140581","BSTAR":"0.00016669000000","SEMIMAJOR_AXIS":"6925.326","OBJECT_ID":"2020-019BK","APOAPSIS":"548.062","RA_OF_ASC_NODE":"39.8472","GP_ID":"213973941","MEAN_MOTION":"15.06407332","COUNTRY_CODE":"US","MEAN_MOTION_DDOT":"0.0000000000000"},{"GP_ID":"213974689","MEAN_MOTION":"15.08655516","COUNTRY_CODE":"US","MEAN_MOTION_DDOT":"0.0000000000000","MEAN_ANOMALY":"316.1749","NORAD_CAT_ID":"45418","EPOCH":"2022-10-01T17:29:01.971456","OBJECT_NAME":"STARLINK-1299","CENTER_NAME":"EARTH","FILE":"3588844","PERIAPSIS":"539.755","OBJECT_ID":"2020-019BL","SEMIMAJOR_AXIS":"6918.444","TLE_LINE2":"2 45418  52.9992  60.6901 0000801  43.9304 316.1749 15.08655516139976","BSTAR":"0.00147500000000","APOAPSIS":"540.864","RA_OF_ASC_NODE":"60.6901","TIME_SYSTEM":"UTC","TLE_LINE1":"1 45418U 20019BL  22274.72849504  .00023149  00000-0  14750-2 0  9998","MEAN_MOTION_DOT":"0.00023149","INCLINATION":"52.9992","RCS_SIZE":"LARGE","ECCENTRICITY":"0.00008010","EPHEMERIS_TYPE":"0","SITE":"AFETR","CLASSIFICATION_TYPE":"U","LAUNCH_DATE":"2020-03-18","OBJECT_TYPE":"PAYLOAD","MEAN_ELEMENT_THEORY":"SGP4","ELEMENT_SET_NO":"999","REV_AT_EPOCH":"13997","PERIOD":"95.449","ARG_OF_PERICENTER":"43.9304","DECAY_DATE":null,"REF_FRAME":"TEME"},{"MEAN_MOTION":"15.05947148","GP_ID":"213974941","MEAN_MOTION_DDOT":"0.0000000000000","COUNTRY_CODE":"US","FILE":"3588844","PERIAPSIS":"546.433","EPOCH":"2022-10-01T18:28:48.001728","OBJECT_NAME":"STARLINK-1308","CENTER_NAME":"EARTH","MEAN_ANOMALY":"337.3256","NORAD_CAT_ID":"45419","APOAPSIS":"550.771","RA_OF_ASC_NODE":"40.1851","TLE_LINE2":"2 45419  53.0556  40.1851 0003131  22.7871 337.3256 15.05947148140326","BSTAR":"-0.00704520000000","SEMIMAJOR_AXIS":"6926.737","OBJECT_ID":"2020-019BM","MEAN_MOTION_DOT":"-0.00102474","INCLINATION":"53.0556","TLE_LINE1":"1 45419U 20019BM  22274.77000002 -.00102474  00000-0 -70452-2 0  9998","TIME_SYSTEM":"UTC","SITE":"AFETR","EPHEMERIS_TYPE":"0","ECCENTRICITY":"0.00031310","RCS_SIZE":"LARGE","MEAN_ELEMENT_THEORY":"SGP4","OBJECT_TYPE":"PAYLOAD","LAUNCH_DATE":"2020-03-18","CLASSIFICATION_TYPE":"U","REF_FRAME":"TEME","PERIOD":"95.621","ARG_OF_PERICENTER":"22.7871","DECAY_DATE":null,"ELEMENT_SET_NO":"999","REV_AT_EPOCH":"14032"},{"MEAN_MOTION_DDOT":"0.0000000000000","COUNTRY_CODE":"US","MEAN_MOTION":"15.06411337","GP_ID":"213944271","APOAPSIS":"548.240","RA_OF_ASC_NODE":"341.5114","OBJECT_ID":"2020-025A","SEMIMAJOR_AXIS":"6925.314","BSTAR":"0.00016982000000","TLE_LINE2":"2 45531  53.0554 341.5114 0001533  61.1997 298.9145 15.06411337135903","EPOCH":"2022-10-01T11:21:12.411648","CENTER_NAME":"EARTH","OBJECT_NAME":"STARLINK-1329","FILE":"3588593","PERIAPSIS":"546.117","MEAN_ANOMALY":"298.9145","NORAD_CAT_ID":"45531","ECCENTRICITY":"0.00015330","EPHEMERIS_TYPE":"0","SITE":"AFETR","RCS_SIZE":"LARGE","MEAN_MOTION_DOT":"0.00002250","INCLINATION":"53.0554","TIME_SYSTEM":"UTC","TLE_LINE1":"1 45531U 20025A   22274.47306032  .00002250  00000-0  16982-3 0  9997","REF_FRAME":"TEME","ELEMENT_SET_NO":"999","REV_AT_EPOCH":"13590","PERIOD":"95.591","ARG_OF_PERICENTER":"61.1997","DECAY_DATE":null,"OBJECT_TYPE":"PAYLOAD","MEAN_ELEMENT_THEORY":"SGP4","CLASSIFICATION_TYPE":"U","LAUNCH_DATE":"2020-04-22"},{"ELEMENT_SET_NO":"999","REV_AT_EPOCH":"13532","PERIOD":"95.592","ARG_OF_PERICENTER":"65.8230","DECAY_DATE":null,"REF_FRAME":"TEME","CLASSIFICATION_TYPE":"U","LAUNCH_DATE":"2020-04-22","OBJECT_TYPE":"PAYLOAD","MEAN_ELEMENT_THEORY":"SGP4","RCS_SIZE":"LARGE","ECCENTRICITY":"0.00014360","SITE":"AFETR","EPHEMERIS_TYPE":"0","TIME_SYSTEM":"UTC","TLE_LINE1":"1 45532U 20025B   22274.48411394  .00001858  00000-0  14356-3 0  9993","INCLINATION":"53.0572","MEAN_MOTION_DOT":"0.00001858","SEMIMAJOR_AXIS":"6925.336","OBJECT_ID":"2020-025B","BSTAR":"0.00014356000000","TLE_LINE2":"2 45532  53.0572 341.4665 0001436  65.8230 294.2909 15.06403996135322","APOAPSIS":"548.196","RA_OF_ASC_NODE":"341.4665","NORAD_CAT_ID":"45532","MEAN_ANOMALY":"294.2909","EPOCH":"2022-10-01T11:37:07.444416","CENTER_NAME":"EARTH","OBJECT_NAME":"STARLINK-1338","FILE":"3588637","PERIAPSIS":"546.207","COUNTRY_CODE":"US","MEAN_MOTION_DDOT":"0.0000000000000","GP_ID":"213950489","MEAN_MOTION":"15.06403996"},{"SITE":"AFETR","EPHEMERIS_TYPE":"0","ECCENTRICITY":"0.00019620","RCS_SIZE":"LARGE","MEAN_MOTION_DOT":"0.00018613","INCLINATION":"53.0545","TLE_LINE1":"1 45534U 20025D   22274.56153390  .00018613  00000-0  12640-2 0  9993","TIME_SYSTEM":"UTC","REF_FRAME":"TEME","ARG_OF_PERICENTER":"38.1609","PERIOD":"95.590","DECAY_DATE":null,"ELEMENT_SET_NO":"999","REV_AT_EPOCH":"13591","MEAN_ELEMENT_THEORY":"SGP4","OBJECT_TYPE":"PAYLOAD","LAUNCH_DATE":"2020-04-22","CLASSIFICATION_TYPE":"U","MEAN_MOTION_DDOT":"0.0000000000000","COUNTRY_CODE":"US","MEAN_MOTION":"15.06433087","GP_ID":"213942775","APOAPSIS":"548.471","RA_OF_ASC_NODE":"341.1043","TLE_LINE2":"2 45534  53.0545 341.1043 0001962  38.1609 321.9519 15.06433087135912","BSTAR":"0.00126400000000","SEMIMAJOR_AXIS":"6925.247","OBJECT_ID":"2020-025D","FILE":"3588593","PERIAPSIS":"545.753","EPOCH":"2022-10-01T13:28:36.528960","CENTER_NAME":"EARTH","OBJECT_NAME":"STARLINK-1341","MEAN_ANOMALY":"321.9519","NORAD_CAT_ID":"45534"},{"EPHEMERIS_TYPE":"0","SITE":"AFETR","ECCENTRICITY":"0.00017170","RCS_SIZE":"LARGE","INCLINATION":"53.0555","MEAN_MOTION_DOT":"0.00004524","TLE_LINE1":"1 45535U 20025E   22274.57995578  .00004524  00000-0  32227-3 0  9997","TIME_SYSTEM":"UTC","REF_FRAME":"TEME","DECAY_DATE":null,"PERIOD":"95.591","ARG_OF_PERICENTER":"54.9634","REV_AT_EPOCH":"13592","ELEMENT_SET_NO":"999","MEAN_ELEMENT_THEORY":"SGP4","OBJECT_TYPE":"PAYLOAD","LAUNCH_DATE":"2020-04-22","CLASSIFICATION_TYPE":"U","MEAN_MOTION_DDOT":"0.0000000000000","COUNTRY_CODE":"US","MEAN_MOTION":"15.06413554","GP_ID":"213975203","RA_OF_ASC_NODE":"341.0252","APOAPSIS":"548.361","BSTAR":"0.00032227000000","TLE_LINE2":"2 45535  53.0555 341.0252 0001717  54.9634 305.1516 15.06413554135926","OBJECT_ID":"2020-025E","SEMIMAJOR_AXIS":"6925.307","PERIAPSIS":"545.983","FILE":"3588844","OBJECT_NAME":"STARLINK-1350","CENTER_NAME":"EARTH","EPOCH":"2022-10-01T13:55:08.179392","MEAN_ANOMALY":"305.1516","NORAD_CAT_ID":"45535"}];
